COSMOS 2242             
1 22626U 93024A   26075.99067277  .00002033  00000+0  17601-3 0  9998
2 22626  82.5149 259.7310 0014901 282.1193  77.8360 14.96580593781486
SL-16 R/B               
1 22803U 93059B   26076.09968045  .00000207  00000+0  12608-3 0  9991
2 22803  70.9931 355.5013 0018104 205.6654 154.3573 14.17232416680586
ARIANE 40 R/B           
1 22830U 93061H   26075.61178494  .00000195  00000+0  87434-4 0  9998
2 22830  98.4902 144.3624 0009575 262.1782  97.8316 14.32864707695092
COSMOS 2278             
1 23087U 94023A   26075.59934391 -.00000118  00000+0 -37212-4 0  9991
2 23087  71.0546 160.6430 0008531   1.0318 359.0821 14.14379394645788
SL-16 R/B               
1 23088U 94023B   26076.13755978 -.00000093  00000+0 -23537-4 0  9992
2 23088  70.9990  55.2443 0005573 278.2787  81.7704 14.15009982647149
SL-16 R/B               
1 23343U 94074B   26076.09871367  .00000428  00000+0  63957-4 0  9998
2 23343  97.7098 106.6163 0006357 184.5792 239.9711 14.79416632688341
SL-16 R/B               
1 23405U 94077B   26076.11628820  .00000300  00000+0  17775-3 0  9992
2 23405  70.9851 336.8665 0002664 203.0752 157.0251 14.15564023617286
ARIANE 40+ R/B          
1 23561U 95021B   26076.11364500  .00000263  00000+0  97721-4 0  9995
2 23561  98.4483 147.4953 0007879 117.1002 303.0291 14.39777843620314
SL-16 R/B               
1 23705U 95058B   26075.69962711  .00000171  00000+0  11150-3 0  9994
2 23705  71.0223 165.5387 0010479 113.0613 247.1615 14.15499736568841
SL-16 R/B               
1 24298U 96051B   26074.97333891  .00000064  00000+0  61450-4 0  9997
2 24298  70.7601 161.9397 0014545 138.2751 221.9481 14.12417287522531
ORBVIEW 2 (SEASTAR)     
1 24883U 97037A   26076.15480320  .00000245  00000+0  10151-3 0  9996
2 24883  98.8580 240.6648 0002892  56.6439 303.5022 14.35500325509545
SL-16 R/B               
1 25400U 98043G   26076.09874295  .00000044  00000+0  37283-4 0  9994
2 25400  98.8266  29.5151 0009829 359.5864   0.5305 14.26051487440046
