CCSDS_OMM_VERS = 2.0
CREATION_DATE  = 
ORIGINATOR     = 

OBJECT_NAME    = COSMOS 2242
OBJECT_ID      = 1993-024A
CENTER_NAME    = EARTH
REF_FRAME      = TEME
TIME_SYSTEM    = UTC
MEAN_ELEMENT_THEORY = SGP/SGP4

EPOCH          = 2026-03-16T23:46:34.127328
MEAN_MOTION    = 14.96580593
ECCENTRICITY   = .0014901
INCLINATION    = 82.5149
RA_OF_ASC_NODE = 259.7310
ARG_OF_PERICENTER = 282.1193
MEAN_ANOMALY   = 77.8360

EPHEMERIS_TYPE = 0
CLASSIFICATION_TYPE = U
NORAD_CAT_ID   = 22626
ELEMENT_SET_NO = 999
REV_AT_EPOCH   = 78148
BSTAR          = .17601E-3
MEAN_MOTION_DOT = .2033E-4
MEAN_MOTION_DDOT = 0

CCSDS_OMM_VERS = 2.0
CREATION_DATE  = 
ORIGINATOR     = 

OBJECT_NAME    = SL-16 R/B
OBJECT_ID      = 1993-059B
CENTER_NAME    = EARTH
REF_FRAME      = TEME
TIME_SYSTEM    = UTC
MEAN_ELEMENT_THEORY = SGP/SGP4

EPOCH          = 2026-03-17T02:23:32.390880
MEAN_MOTION    = 14.17232416
ECCENTRICITY   = .0018104
INCLINATION    = 70.9931
RA_OF_ASC_NODE = 355.5013
ARG_OF_PERICENTER = 205.6654
MEAN_ANOMALY   = 154.3573

EPHEMERIS_TYPE = 0
CLASSIFICATION_TYPE = U
NORAD_CAT_ID   = 22803
ELEMENT_SET_NO = 999
REV_AT_EPOCH   = 68058
BSTAR          = .12608E-3
MEAN_MOTION_DOT = .207E-5
MEAN_MOTION_DDOT = 0

CCSDS_OMM_VERS = 2.0
CREATION_DATE  = 
ORIGINATOR     = 

OBJECT_NAME    = ARIANE 40 R/B
OBJECT_ID      = 1993-061H
CENTER_NAME    = EARTH
REF_FRAME      = TEME
TIME_SYSTEM    = UTC
MEAN_ELEMENT_THEORY = SGP/SGP4

EPOCH          = 2026-03-16T14:40:58.218816
MEAN_MOTION    = 14.32864707
ECCENTRICITY   = .0009575
INCLINATION    = 98.4902
RA_OF_ASC_NODE = 144.3624
ARG_OF_PERICENTER = 262.1782
MEAN_ANOMALY   = 97.8316

EPHEMERIS_TYPE = 0
CLASSIFICATION_TYPE = U
NORAD_CAT_ID   = 22830
ELEMENT_SET_NO = 999
REV_AT_EPOCH   = 69509
BSTAR          = .87434E-4
MEAN_MOTION_DOT = .195E-5
MEAN_MOTION_DDOT = 0

CCSDS_OMM_VERS = 2.0
CREATION_DATE  = 
ORIGINATOR     = 

OBJECT_NAME    = COSMOS 2278
OBJECT_ID      = 1994-023A
CENTER_NAME    = EARTH
REF_FRAME      = TEME
TIME_SYSTEM    = UTC
MEAN_ELEMENT_THEORY = SGP/SGP4

EPOCH          = 2026-03-16T14:23:03.313824
MEAN_MOTION    = 14.14379394
ECCENTRICITY   = .0008531
INCLINATION    = 71.0546
RA_OF_ASC_NODE = 160.6430
ARG_OF_PERICENTER = 1.0318
MEAN_ANOMALY   = 359.0821

EPHEMERIS_TYPE = 0
CLASSIFICATION_TYPE = U
NORAD_CAT_ID   = 23087
ELEMENT_SET_NO = 999
REV_AT_EPOCH   = 64578
BSTAR          = -.37212E-4
MEAN_MOTION_DOT = -.118E-5
MEAN_MOTION_DDOT = 0

CCSDS_OMM_VERS = 2.0
CREATION_DATE  = 
ORIGINATOR     = 

OBJECT_NAME    = SL-16 R/B
OBJECT_ID      = 1994-023B
CENTER_NAME    = EARTH
REF_FRAME      = TEME
TIME_SYSTEM    = UTC
MEAN_ELEMENT_THEORY = SGP/SGP4

EPOCH          = 2026-03-17T03:18:05.164992
MEAN_MOTION    = 14.15009982
ECCENTRICITY   = .0005573
INCLINATION    = 70.9990
RA_OF_ASC_NODE = 55.2443
ARG_OF_PERICENTER = 278.2787
MEAN_ANOMALY   = 81.7704

EPHEMERIS_TYPE = 0
CLASSIFICATION_TYPE = U
NORAD_CAT_ID   = 23088
ELEMENT_SET_NO = 999
REV_AT_EPOCH   = 64714
BSTAR          = -.23537E-4
MEAN_MOTION_DOT = -.93E-6
MEAN_MOTION_DDOT = 0

CCSDS_OMM_VERS = 2.0
CREATION_DATE  = 
ORIGINATOR     = 

OBJECT_NAME    = SL-16 R/B
OBJECT_ID      = 1994-074B
CENTER_NAME    = EARTH
REF_FRAME      = TEME
TIME_SYSTEM    = UTC
MEAN_ELEMENT_THEORY = SGP/SGP4

EPOCH          = 2026-03-17T02:22:08.861088
MEAN_MOTION    = 14.79416632
ECCENTRICITY   = .0006357
INCLINATION    = 97.7098
RA_OF_ASC_NODE = 106.6163
ARG_OF_PERICENTER = 184.5792
MEAN_ANOMALY   = 239.9711

EPHEMERIS_TYPE = 0
CLASSIFICATION_TYPE = U
NORAD_CAT_ID   = 23343
ELEMENT_SET_NO = 999
REV_AT_EPOCH   = 68834
BSTAR          = .63957E-4
MEAN_MOTION_DOT = .428E-5
MEAN_MOTION_DDOT = 0

CCSDS_OMM_VERS = 2.0
CREATION_DATE  = 
ORIGINATOR     = 

OBJECT_NAME    = SL-16 R/B
OBJECT_ID      = 1994-077B
CENTER_NAME    = EARTH
REF_FRAME      = TEME
TIME_SYSTEM    = UTC
MEAN_ELEMENT_THEORY = SGP/SGP4

EPOCH          = 2026-03-17T02:47:27.300480
MEAN_MOTION    = 14.15564023
ECCENTRICITY   = .0002664
INCLINATION    = 70.9851
RA_OF_ASC_NODE = 336.8665
ARG_OF_PERICENTER = 203.0752
MEAN_ANOMALY   = 157.0251

EPHEMERIS_TYPE = 0
CLASSIFICATION_TYPE = U
NORAD_CAT_ID   = 23405
ELEMENT_SET_NO = 999
REV_AT_EPOCH   = 61728
BSTAR          = .17775E-3
MEAN_MOTION_DOT = .3E-5
MEAN_MOTION_DDOT = 0

CCSDS_OMM_VERS = 2.0
CREATION_DATE  = 
ORIGINATOR     = 

OBJECT_NAME    = ARIANE 40+ R/B
OBJECT_ID      = 1995-021B
CENTER_NAME    = EARTH
REF_FRAME      = TEME
TIME_SYSTEM    = UTC
MEAN_ELEMENT_THEORY = SGP/SGP4

EPOCH          = 2026-03-17T02:43:38.928000
MEAN_MOTION    = 14.39777843
ECCENTRICITY   = .0007879
INCLINATION    = 98.4483
RA_OF_ASC_NODE = 147.4953
ARG_OF_PERICENTER = 117.1002
MEAN_ANOMALY   = 303.0291

EPHEMERIS_TYPE = 0
CLASSIFICATION_TYPE = U
NORAD_CAT_ID   = 23561
ELEMENT_SET_NO = 999
REV_AT_EPOCH   = 62031
BSTAR          = .97721E-4
MEAN_MOTION_DOT = .263E-5
MEAN_MOTION_DDOT = 0

CCSDS_OMM_VERS = 2.0
CREATION_DATE  = 
ORIGINATOR     = 

OBJECT_NAME    = SL-16 R/B
OBJECT_ID      = 1995-058B
CENTER_NAME    = EARTH
REF_FRAME      = TEME
TIME_SYSTEM    = UTC
MEAN_ELEMENT_THEORY = SGP/SGP4

EPOCH          = 2026-03-16T16:47:27.782304
MEAN_MOTION    = 14.15499736
ECCENTRICITY   = .0010479
INCLINATION    = 71.0223
RA_OF_ASC_NODE = 165.5387
ARG_OF_PERICENTER = 113.0613
MEAN_ANOMALY   = 247.1615

EPHEMERIS_TYPE = 0
CLASSIFICATION_TYPE = U
NORAD_CAT_ID   = 23705
ELEMENT_SET_NO = 999
REV_AT_EPOCH   = 56884
BSTAR          = .1115E-3
MEAN_MOTION_DOT = .171E-5
MEAN_MOTION_DDOT = 0

CCSDS_OMM_VERS = 2.0
CREATION_DATE  = 
ORIGINATOR     = 

OBJECT_NAME    = SL-16 R/B
OBJECT_ID      = 1996-051B
CENTER_NAME    = EARTH
REF_FRAME      = TEME
TIME_SYSTEM    = UTC
MEAN_ELEMENT_THEORY = SGP/SGP4

EPOCH          = 2026-03-15T23:21:36.481824
MEAN_MOTION    = 14.12417287
ECCENTRICITY   = .00145453
INCLINATION    = 70.7601
RA_OF_ASC_NODE = 161.9397
ARG_OF_PERICENTER = 138.2751
MEAN_ANOMALY   = 221.9481

EPHEMERIS_TYPE = 0
CLASSIFICATION_TYPE = U
NORAD_CAT_ID   = 24298
ELEMENT_SET_NO = 999
REV_AT_EPOCH   = 52253
BSTAR          = .61450355E-4
MEAN_MOTION_DOT = .64E-6
MEAN_MOTION_DDOT = 0

CCSDS_OMM_VERS = 2.0
CREATION_DATE  = 
ORIGINATOR     = 

OBJECT_NAME    = ORBVIEW 2 (SEASTAR)
OBJECT_ID      = 1997-037A
CENTER_NAME    = EARTH
REF_FRAME      = TEME
TIME_SYSTEM    = UTC
MEAN_ELEMENT_THEORY = SGP/SGP4

EPOCH          = 2026-03-17T03:42:54.996480
MEAN_MOTION    = 14.35500325
ECCENTRICITY   = .0002892
INCLINATION    = 98.8580
RA_OF_ASC_NODE = 240.6648
ARG_OF_PERICENTER = 56.6439
MEAN_ANOMALY   = 303.5022

EPHEMERIS_TYPE = 0
CLASSIFICATION_TYPE = U
NORAD_CAT_ID   = 24883
ELEMENT_SET_NO = 999
REV_AT_EPOCH   = 50954
BSTAR          = .10151E-3
MEAN_MOTION_DOT = .245E-5
MEAN_MOTION_DDOT = 0

CCSDS_OMM_VERS = 2.0
CREATION_DATE  = 
ORIGINATOR     = 

OBJECT_NAME    = SL-16 R/B
OBJECT_ID      = 1998-043G
CENTER_NAME    = EARTH
REF_FRAME      = TEME
TIME_SYSTEM    = UTC
MEAN_ELEMENT_THEORY = SGP/SGP4

EPOCH          = 2026-03-17T02:22:11.390880
MEAN_MOTION    = 14.26051487
ECCENTRICITY   = .0009829
INCLINATION    = 98.8266
RA_OF_ASC_NODE = 29.5151
ARG_OF_PERICENTER = 359.5864
MEAN_ANOMALY   = 0.5305

EPHEMERIS_TYPE = 0
CLASSIFICATION_TYPE = U
NORAD_CAT_ID   = 25400
ELEMENT_SET_NO = 999
REV_AT_EPOCH   = 44004
BSTAR          = .37283E-4
MEAN_MOTION_DOT = .44E-6
MEAN_MOTION_DDOT = 0

